STARLINK-1559           
1 46077U 20055BC  26068.23360559  .00042685  00000+0  14779-2 0  9995
2 46077  53.0254  76.0659 0004229  33.9710 326.1559 15.29461733309518
STARLINK-33911          
1 63777U 25091C   26067.96548574  .00035170  00000+0  12813-2 0  9998
2 63777  43.0021  49.4639 0001593 251.2035 108.8644 15.27584249 48878
